NORAD_CAT_ID,OBJECT_NAME,OBJECT_TYPE,EPOCH,MEAN_MOTION,ECCENTRICITY,INCLINATION,RA_OF_ASC_NODE,ARG_OF_PERICENTER,MEAN_ANOMALY,BSTAR,MEAN_MOTION_DOT,MEAN_MOTION_DDOT,TLE_LINE0,TLE_LINE1,TLE_LINE2,SEMIMAJOR_AXIS,PERIOD,APOGEE,PERIGEE,DECAYED
54806.0,STARLINK-5412,PAYLOAD,2024-03-07 09:28:28,15.08834887,0.0001521,53.2176,76.1123,99.2168,260.8996,0.00018959,2.73e-05,0.0,0 STARLINK-5412,1 54806U 22175BA  24067.39476895  .00002730  00000-0  18959-3 0  9997,2 54806  53.2176  76.1123 0001521  99.2168 260.8996 15.08834887 69583,6917.896,95.438,540.813,538.709,0.0
54806.0,STARLINK-5412,PAYLOAD,2024-03-08 09:19:15,15.08840155,0.000169,53.2183,71.6493,94.1193,265.9992,2.2418e-05,6.9e-07,0.0,0 STARLINK-5412,1 54806U 22175BA  24068.38837226  .00000069  00000-0  22418-4 0  9995,2 54806  53.2183  71.6493 0001690  94.1193 265.9992 15.08840155 69734,6917.88,95.438,540.914,538.576,0.0
54806.0,STARLINK-5412,PAYLOAD,2024-03-08 17:16:10,15.08847914,0.0001848,53.2192,70.1615,80.2207,279.8994,8.319e-05,1.036e-05,0.0,0 STARLINK-5412,1 54806U 22175BA  24068.71956548  .00001036  00000-0  83190-4 0  9990,2 54806  53.2192  70.1615 0001848  80.2207 279.8994 15.08847914 67623,6917.856,95.437,541.0,538.443,0.0
54806.0,STARLINK-5412,PAYLOAD,2024-03-09 04:23:53,15.08837813,0.0002215,53.2188,68.0795,77.0192,283.1048,9.5089e-06,-1.37e-06,0.0,0 STARLINK-5412,1 54806U 22175BA  24069.18325452 -.00000137  00000-0  95089-5 0  9999,2 54806  53.2188  68.0795 0002215  77.0192 283.1048 15.08837813 67691,6917.887,95.438,541.284,538.22,0.0
54806.0,STARLINK-5412,PAYLOAD,2024-03-09 09:10:02,15.08841386,0.000161,53.2182,67.1905,87.3636,272.7541,-1.6574e-05,-5.52e-06,0.0,0 STARLINK-5412,1 54806U 22175BA  24069.38197295 -.00000552  00000-0 -16574-4 0  9996,2 54806  53.2182  67.1905 0001610  87.3636 272.7541 15.08841386 69888,6917.876,95.437,540.855,538.627,0.0
54806.0,STARLINK-5412,PAYLOAD,2024-03-09 17:06:57,15.08846862,0.000155,53.2185,65.7033,85.4692,274.6477,-1.3638e-05,-5.05e-06,0.0,0 STARLINK-5412,1 54806U 22175BA  24069.71316755 -.00000505  00000-0 -13638-4 0  9993,2 54806  53.2185  65.7033 0001550  85.4692 274.6477 15.08846862 67770,6917.859,95.437,540.797,538.652,0.0
54806.0,STARLINK-5412,PAYLOAD,2024-03-10 04:14:40,15.08825902,0.0001276,53.2192,63.6208,88.7957,271.3181,9.955e-05,1.296e-05,0.0,0 STARLINK-5412,1 54806U 22175BA  24070.17685778  .00001296  00000-0  99550-4 0  9992,2 54806  53.2192  63.6208 0001276  88.7957 271.3181 15.08825902 67840,6917.923,95.438,540.671,538.906,0.0
54806.0,STARLINK-5412,PAYLOAD,2024-03-10 05:50:03,15.08836231,0.0001554,53.2182,63.3205,99.1535,260.9633,-1.201e-05,-4.79e-06,0.0,0 STARLINK-5412,1 54806U 22175BA  24070.24309492 -.00000479  00000-0 -12010-4 0  9996,2 54806  53.2182  63.3205 0001554  99.1535 260.9633 15.08836231 70016,6917.892,95.438,540.832,538.682,0.0
54806.0,STARLINK-5412,PAYLOAD,2024-03-10 16:57:44,15.08843533,0.0001656,53.2194,61.2421,91.005,269.1132,1.4162e-05,-6.3e-07,0.0,0 STARLINK-5412,1 54806U 22175BA  24070.70676996 -.00000063  00000-0  14162-4 0  9991,2 54806  53.2194  61.2421 0001656  91.0050 269.1132 15.08843533 67926,6917.87,95.437,540.88,538.589,0.0
54806.0,STARLINK-5412,PAYLOAD,2024-03-11 05:40:50,15.08841084,0.0001694,53.2192,58.8628,90.3905,269.7281,6.0717e-05,6.78e-06,0.0,0 STARLINK-5412,1 54806U 22175BA  24071.23669128  .00000678  00000-0  60717-4 0  9997,2 54806  53.2192  58.8628 0001694  90.3905 269.7281 15.08841084 70168,6917.877,95.437,540.914,538.57,0.0
54806.0,STARLINK-5412,PAYLOAD,2024-03-12 03:56:14,15.08824194,0.0001613,53.2192,54.6998,100.6225,259.4949,0.0002153,3.139e-05,0.0,0 STARLINK-5412,1 54806U 22175BA  24072.16405831  .00003139  00000-0  21530-3 0  9993,2 54806  53.2192  54.6998 0001613 100.6225 259.4949 15.08824194 68148,6917.929,95.439,540.91,538.678,0.0
54806.0,STARLINK-5412,PAYLOAD,2024-03-12 08:42:23,15.08838439,0.0001631,53.2191,53.8083,98.1204,261.9973,2.5385e-05,1.16e-06,0.0,0 STARLINK-5412,1 54806U 22175BA  24072.36277430  .00000116  00000-0  25385-4 0  9992,2 54806  53.2191  53.8083 0001631  98.1204 261.9973 15.08838439 68176,6917.885,95.438,540.878,538.622,0.0
54806.0,STARLINK-5412,PAYLOAD,2024-03-13 08:33:10,15.088418,0.0001397,53.2181,49.348,87.7385,272.3767,2.2395e-05,6.9e-07,0.0,0 STARLINK-5412,1 54806U 22175BA  24073.35637242  .00000069  00000-0  22395-4 0  9998,2 54806  53.2181  49.3480 0001397  87.7385 272.3767 15.08841800 70489,6917.875,95.437,540.706,538.773,0.0
54806.0,STARLINK-5412,PAYLOAD,2024-03-13 14:54:42,15.08847491,0.0001406,53.2186,48.159,90.2702,269.8451,9.6519e-05,1.249e-05,0.0,0 STARLINK-5412,1 54806U 22175BA  24073.62132598  .00001249  00000-0  96519-4 0  9992,2 54806  53.2186  48.1590 0001406  90.2702 269.8451 15.08847491 68363,6917.857,95.437,540.695,538.75,0.0
54806.0,STARLINK-5412,PAYLOAD,2024-03-13 22:51:38,15.08845455,0.0002238,53.2184,46.672,82.0834,278.0412,9.6447e-05,1.247e-05,0.0,0 STARLINK-5412,1 54806U 22175BA  24073.95252958  .00001247  00000-0  96447-4 0  9999,2 54806  53.2184  46.6720 0002238  82.0834 278.0412 15.08845455 70571,6917.864,95.437,541.277,538.18,0.0
54806.0,STARLINK-5412,PAYLOAD,2024-03-14 03:37:48,15.08837235,0.0001743,53.2201,45.7846,111.7508,248.367,3.4751e-05,2.65e-06,0.0,0 STARLINK-5412,1 54806U 22175BA  24074.15125590  .00000265  00000-0  34751-4 0  9992,2 54806  53.2201  45.7846 0001743 111.7508 248.3670 15.08837235 68444,6917.889,95.438,540.96,538.548,0.0
54806.0,STARLINK-5412,PAYLOAD,2024-03-14 16:20:54,15.08826104,8.42e-05,53.2193,43.4012,106.5251,253.5834,-6.5389e-05,-1.328e-05,0.0,0 STARLINK-5412,1 54806U 22175BA  24074.68118154 -.00001328  00000-0 -65389-4 0  9992,2 54806  53.2193  43.4012 0000842 106.5251 253.5834 15.08826104 68522,6917.923,95.438,540.37,539.205,0.0
54806.0,STARLINK-5412,PAYLOAD,2024-03-15 06:39:22,15.08834576,0.0001575,53.2197,40.7254,94.2742,265.843,-2.0309e-06,-3.2e-06,0.0,0 STARLINK-5412,1 54806U 22175BA  24075.27734117 -.00000320  00000-0 -20309-5 0  9996,2 54806  53.2197  40.7254 0001575  94.2742 265.8430 15.08834576 68616,6917.897,95.438,540.852,538.672,0.0
54806.0,STARLINK-5412,PAYLOAD,2024-03-15 13:00:54,15.08836245,0.0001479,53.2193,39.5347,100.1204,259.9955,-1.8021e-07,-2.91e-06,0.0,0 STARLINK-5412,1 54806U 22175BA  24075.54230056 -.00000291  00000-0 -18021-6 0  9995,2 54806  53.2193  39.5347 0001479 100.1204 259.9955 15.08836245 70810,6917.892,95.438,540.78,538.734,0.0
54806.0,STARLINK-5412,PAYLOAD,2024-03-16 04:54:46,15.0883646,0.0001501,53.2195,36.5606,88.925,271.1914,2.7913e-05,1.56e-06,0.0,0 STARLINK-5412,1 54806U 22175BA  24076.20470124  .00000156  00000-0  27913-4 0  9997,2 54806  53.2195  36.5606 0001501  88.9250 271.1914 15.08836460 70918,6917.891,95.438,540.795,538.718,0.0
54806.0,STARLINK-5412,PAYLOAD,2024-03-17 03:10:09,15.08839401,0.0001509,53.2198,32.3986,103.2489,256.8671,0.00013544,1.868e-05,0.0,0 STARLINK-5412,1 54806U 22175BA  24077.13205736  .00001868  00000-0  13544-3 0  9990,2 54806  53.2198  32.3986 0001509 103.2489 256.8671 15.08839401 68891,6917.882,95.438,540.791,538.703,0.0
54806.0,STARLINK-5412,PAYLOAD,2024-03-17 06:20:56,15.08842057,0.0001464,53.2198,31.8029,94.5744,265.5415,0.00010557,1.393e-05,0.0,0 STARLINK-5412,1 54806U 22175BA  24077.26453713  .00001393  00000-0  10557-3 0  9998,2 54806  53.2198  31.8029 0001464  94.5744 265.5415 15.08842057 71077,6917.874,95.437,540.752,538.726,0.0
54806.0,STARLINK-5412,PAYLOAD,2024-03-18 06:11:43,15.08842825,0.0001469,53.22,27.3413,87.9236,272.1925,5.8087e-05,6.37e-06,0.0,0 STARLINK-5412,1 54806U 22175BA  24078.25813719  .00000637  00000-0  58087-4 0  9995,2 54806  53.2200  27.3413 0001469  87.9236 272.1925 15.08842825 69064,6917.872,95.437,540.753,538.721,0.0
54806.0,STARLINK-5412,PAYLOAD,2024-03-19 06:02:29,15.0884417,0.0001374,53.2194,22.8801,101.4691,258.6456,4.4632e-05,4.23e-06,0.0,0 STARLINK-5412,1 54806U 22175BA  24079.25173487  .00000423  00000-0  44632-4 0  9991,2 54806  53.2194  22.8801 0001374 101.4691 258.6456 15.08844170 71379,6917.868,95.437,540.683,538.782,0.0
54806.0,STARLINK-5412,PAYLOAD,2024-03-19 12:24:01,15.08860098,0.000134,53.2204,21.6959,114.6408,245.4724,0.00012223,1.659e-05,0.0,0 STARLINK-5412,1 54806U 22175BA  24079.51668133  .00001659  00000-0  12223-3 0  9999,2 54806  53.2204  21.6959 0001340 114.6408 245.4724 15.08860098 69250,6917.819,95.436,540.611,538.757,0.0
54806.0,STARLINK-5412,PAYLOAD,2024-03-20 01:07:07,15.08841115,0.0001347,53.2201,19.3153,80.0522,280.0622,1.5046e-05,-4.8e-07,0.0,0 STARLINK-5412,1 54806U 22175BA  24080.04661566 -.00000048  00000-0  15046-4 0  9991,2 54806  53.2201  19.3153 0001347  80.0522 280.0622 15.08841115 69337,6917.877,95.437,540.674,538.81,0.0
54806.0,STARLINK-5412,PAYLOAD,2024-03-20 12:14:46,15.08872676,0.0001312,53.2196,17.232,78.9745,281.1395,0.00028414,4.241e-05,0.0,0 STARLINK-5412,1 54806U 22175BA  24080.51026343  .00004241  00000-0  28414-3 0  9991,2 54806  53.2196  17.2320 0001312  78.9745 281.1395 15.08872676 71561,6917.781,95.435,540.553,538.738,0.0
54806.0,STARLINK-5412,PAYLOAD,2024-03-21 02:33:19,15.08819626,0.0001441,53.2199,14.5584,102.3796,257.7358,-0.00015147,-2.696e-05,0.0,0 STARLINK-5412,1 54806U 22175BA  24081.10647214 -.00002696  00000-0 -15147-3 0  9996,2 54806  53.2199  14.5584 0001441 102.3796 257.7358 15.08819626 69490,6917.943,95.439,540.805,538.811,0.0
54806.0,STARLINK-5412,PAYLOAD,2024-03-21 12:05:36,15.08841168,0.000114,53.2191,12.7763,104.229,255.8829,-6.1488e-05,-1.266e-05,0.0,0 STARLINK-5412,1 54806U 22175BA  24081.50389810 -.00001266  00000-0 -61488-4 0  9997,2 54806  53.2191  12.7763 0001140 104.2290 255.8829 15.08841168 69552,6917.877,95.437,540.53,538.953,0.0
54806.0,STARLINK-5412,PAYLOAD,2024-03-21 23:13:18,15.08842006,0.0001114,53.2193,10.6969,109.8869,250.2244,-0.00010317,-1.929e-05,0.0,0 STARLINK-5412,1 54806U 22175BA  24081.96757819 -.00001929  00000-0 -10317-3 0  9995,2 54806  53.2193  10.6969 0001114 109.8869 250.2244 15.08842006 71783,6917.874,95.437,540.51,538.969,0.0
